{"type": "FeatureCollection", "features": [ {"type": "Feature", "properties": {"norad_id": 42987, "name": "SKYSAT-C11", "group": "resource", "lat": -1.058137819150287, "lon": -42.14915788063358, "alt_km": 425.7554662473958, "timestamp": "2025-12-26T03:50:11.745283+00:00", "meta": {"OBJECT_NAME": "SKYSAT-C11", "OBJECT_ID": "2017-068A", "EPOCH": "2025-12-24T21:34:50.650176", "MEAN_MOTION": 15.4796518, "ECCENTRICITY": 0.0001116, "INCLINATION": 97.4153, "RA_OF_ASC_NODE": 136.6958, "ARG_OF_PERICENTER": 96.4287, "MEAN_ANOMALY": 263.709, "EPHEMERIS_TYPE": 0, "CLASSIFICATION_TYPE": "U", "NORAD_CAT_ID": 42987, "ELEMENT_SET_NO": 999, "REV_AT_EPOCH": 45619, "BSTAR": 0.00045752, "MEAN_MOTION_DOT": 0.00023827, "MEAN_MOTION_DDOT": 0}, "tle": {"line1": "1 42987U 17068A   25358.89919734  .00023827  00000+0  45752-3 0  9992", "line2": "2 42987  97.4153 136.6958 0001116  96.4287 263.7090 15.47965180456192"}}, "geometry": {"type": "Point", "coordinates": [-42.14915788063358, -1.058137819150287]}}, {"type": "Feature", "properties": {"norad_id": 42988, "name": "SKYSAT-C10", "group": "resource", "lat": -50.04892657511197, "lon": -57.910061994718994, "alt_km": 479.2710965461665, "timestamp": "2025-12-26T03:50:11.745294+00:00", "meta": {"OBJECT_NAME": "SKYSAT-C10", "OBJECT_ID": "2017-068B", "EPOCH": "2025-12-24T19:29:00.783168", "MEAN_MOTION": 15.32071049, "ECCENTRICITY": 0.00043105, "INCLINATION": 97.4272, "RA_OF_ASC_NODE": 129.6977, "ARG_OF_PERICENTER": 75.127, "MEAN_ANOMALY": 285.0448, "EPHEMERIS_TYPE": 0, "CLASSIFICATION_TYPE": "U", "NORAD_CAT_ID": 42988, "ELEMENT_SET_NO": 999, "REV_AT_EPOCH": 45564, "BSTAR": 0.00040464637, "MEAN_MOTION_DOT": 0.00012461, "MEAN_MOTION_DDOT": 0}, "tle": {"line1": "1 42988U 17068B   25358.81181462  .00012461  00000+0  40465-3 0  9992", "line2": "2 42988  97.4272 129.6977 0004310  75.1270 285.0448 15.32071049455642"}}, "geometry": {"type": "Point", "coordinates": [-57.910061994718994, -50.04892657511197]}}, {"type": "Feature", "properties": {"norad_id": 42989, "name": "SKYSAT-C9", "group": "resource", "lat": -81.7490977018965, "lon": -165.49685390226543, "alt_km": 468.73309523612534, "timestamp": "2025-12-26T03:50:11.745304+00:00", "meta": {"OBJECT_NAME": "SKYSAT-C9", "OBJECT_ID": "2017-068C", "EPOCH": "2025-12-25T07:53:29.378400", "MEAN_MOTION": 15.36363881, "ECCENTRICITY": 0.0010242, "INCLINATION": 97.4193, "RA_OF_ASC_NODE": 129.6845, "ARG_OF_PERICENTER": 47.2855, "MEAN_ANOMALY": 312.925, "EPHEMERIS_TYPE": 0, "CLASSIFICATION_TYPE": "U", "NORAD_CAT_ID": 42989, "ELEMENT_SET_NO": 999, "REV_AT_EPOCH": 45601, "BSTAR": 0.00039021, "MEAN_MOTION_DOT": 0.00013787, "MEAN_MOTION_DDOT": 0}, "tle": {"line1": "1 42989U 17068C   25359.32881225  .00013787  00000+0  39021-3 0  9992", "line2": "2 42989  97.4193 129.6845 0010242  47.2855 312.9250 15.36363881456014"}}, "geometry": {"type": "Point", "coordinates": [-165.49685390226543, -81.7490977018965]}}, {"type": "Feature", "properties": {"norad_id": 42990, "name": "SKYSAT-C8", "group": "resource", "lat": 82.1455718269772, "lon": 21.276823096543485, "alt_km": 459.40347205487797, "timestamp": "2025-12-26T03:50:11.745314+00:00", "meta": {"OBJECT_NAME": "SKYSAT-C8", "OBJECT_ID": "2017-068D", "EPOCH": "2025-12-25T19:36:09.673632", "MEAN_MOTION": 15.33207938, "ECCENTRICITY": 9.37e-05, "INCLINATION": 97.4287, "RA_OF_ASC_NODE": 129.8764, "ARG_OF_PERICENTER": 264.9674, "MEAN_ANOMALY": 95.1461, "EPHEMERIS_TYPE": 0, "CLASSIFICATION_TYPE": "U", "NORAD_CAT_ID": 42990, "ELEMENT_SET_NO": 999, "REV_AT_EPOCH": 45571, "BSTAR": 0.00037389, "MEAN_MOTION_DOT": 0.00011923, "MEAN_MOTION_DDOT": 0}, "tle": {"line1": "1 42990U 17068D   25359.81677863  .00011923  00000+0  37389-3 0  9994", "line2": "2 42990  97.4287 129.8764 0000937 264.9674  95.1461 15.33207938455716"}}, "geometry": {"type": "Point", "coordinates": [21.276823096543485, 82.1455718269772]}}, {"type": "Feature", "properties": {"norad_id": 42991, "name": "SKYSAT-C7", "group": "resource", "lat": -78.40904409523793, "lon": 170.76201634564268, "alt_km": 475.8035720245707, "timestamp": "2025-12-26T03:50:11.745335+00:00", "meta": {"OBJECT_NAME": "SKYSAT-C7", "OBJECT_ID": "2017-068E", "EPOCH": "2025-12-25T15:39:14.167584", "MEAN_MOTION": 15.32597834, "ECCENTRICITY": 0.0006817, "INCLINATION": 97.4295, "RA_OF_ASC_NODE": 130.7418, "ARG_OF_PERICENTER": 15.9528, "MEAN_ANOMALY": 344.1927, "EPHEMERIS_TYPE": 0, "CLASSIFICATION_TYPE": "U", "NORAD_CAT_ID": 42991, "ELEMENT_SET_NO": 999, "REV_AT_EPOCH": 45575, "BSTAR": 0.00039345, "MEAN_MOTION_DOT": 0.00012321, "MEAN_MOTION_DDOT": 0}, "tle": {"line1": "1 42991U 17068E   25359.65224731  .00012321  00000+0  39345-3 0  9996", "line2": "2 42991  97.4295 130.7418 0006817  15.9528 344.1927 15.32597834455752"}}, "geometry": {"type": "Point", "coordinates": [170.76201634564268, -78.40904409523793]}}, {"type": "Feature", "properties": {"norad_id": 42992, "name": "SKYSAT-C6", "group": "resource", "lat": -4.770641030581232, "lon": 132.30318213429263, "alt_km": 472.1811030495928, "timestamp": "2025-12-26T03:50:11.745347+00:00", "meta": {"OBJECT_NAME": "SKYSAT-C6", "OBJECT_ID": "2017-068F", "EPOCH": "2025-12-25T20:01:06.089664", "MEAN_MOTION": 15.31757076, "ECCENTRICITY": 0.0004738, "INCLINATION": 97.4326, "RA_OF_ASC_NODE": 131.3522, "ARG_OF_PERICENTER": 46.8398, "MEAN_ANOMALY": 313.3239, "EPHEMERIS_TYPE": 0, "CLASSIFICATION_TYPE": "U", "NORAD_CAT_ID": 42992, "ELEMENT_SET_NO": 999, "REV_AT_EPOCH": 45576, "BSTAR": 0.00037472, "MEAN_MOTION_DOT": 0.0001142, "MEAN_MOTION_DDOT": 0}, "tle": {"line1": "1 42992U 17068F   25359.83409826  .00011420  00000+0  37472-3 0  9995", "line2": "2 42992  97.4326 131.3522 0004738  46.8398 313.3239 15.31757076455769"}}, "geometry": {"type": "Point", "coordinates": [132.30318213429263, -4.770641030581232]}}, {"type": "Feature", "properties": {"norad_id": 43111, "name": "CARTOSAT-2F", "group": "resource", "lat": -44.60689499241815, "lon": -129.8164646824436, "alt_km": 515.3524676858624, "timestamp": "2025-12-26T03:50:11.745357+00:00", "meta": {"OBJECT_NAME": "CARTOSAT-2F", "OBJECT_ID": "2018-004A", "EPOCH": "2025-12-25T20:31:35.010048", "MEAN_MOTION": 15.19246067, "ECCENTRICITY": 0.0001555, "INCLINATION": 97.4294, "RA_OF_ASC_NODE": 57.2791, "ARG_OF_PERICENTER": 109.9291, "MEAN_ANOMALY": 250.2111, "EPHEMERIS_TYPE": 0, "CLASSIFICATION_TYPE": "U", "NORAD_CAT_ID": 43111, "ELEMENT_SET_NO": 999, "REV_AT_EPOCH": 44101, "BSTAR": 0.00017657, "MEAN_MOTION_DOT": 3.653e-05, "MEAN_MOTION_DDOT": 0}, "tle": {"line1": "1 43111U 18004A   25359.85526632  .00003653  00000+0  17657-3 0  9999", "line2": "2 43111  97.4294  57.2791 0001555 109.9291 250.2111 15.19246067441018"}}, "geometry": {"type": "Point", "coordinates": [-129.8164646824436, -44.60689499241815]}}, {"type": "Feature", "properties": {"norad_id": 43259, "name": "GAOFEN-1 02", "group": "resource", "lat": 81.08092946699226, "lon": -6.873995645502404, "alt_km": 632.8812400328452, "timestamp": "2025-12-26T03:50:11.745367+00:00", "meta": {"OBJECT_NAME": "GAOFEN-1 02", "OBJECT_ID": "2018-031A", "EPOCH": "2025-12-25T20:56:29.081184", "MEAN_MOTION": 14.76442656, "ECCENTRICITY": 0.0002662, "INCLINATION": 98.0784, "RA_OF_ASC_NODE": 57.6653, "ARG_OF_PERICENTER": 169.3329, "MEAN_ANOMALY": 190.7937, "EPHEMERIS_TYPE": 0, "CLASSIFICATION_TYPE": "U", "NORAD_CAT_ID": 43259, "ELEMENT_SET_NO": 999, "REV_AT_EPOCH": 41712, "BSTAR": 0.00019933, "MEAN_MOTION_DOT": 1.335e-05, "MEAN_MOTION_DDOT": 0}, "tle": {"line1": "1 43259U 18031A   25359.87255881  .00001335  00000+0  19933-3 0  9993", "line2": "2 43259  98.0784  57.6653 0002662 169.3329 190.7937 14.76442656417128"}}, "geometry": {"type": "Point", "coordinates": [-6.873995645502404, 81.08092946699226]}}, {"type": "Feature", "properties": {"norad_id": 43260, "name": "GAOFEN-1 03", "group": "resource", "lat": -22.33319528785766, "lon": -125.51611435775574, "alt_km": 645.0903668085975, "timestamp": "2025-12-26T03:50:11.745378+00:00", "meta": {"OBJECT_NAME": "GAOFEN-1 03", "OBJECT_ID": "2018-031B", "EPOCH": "2025-12-25T20:24:58.840128", "MEAN_MOTION": 14.76462971, "ECCENTRICITY": 0.0001751, "INCLINATION": 98.078, "RA_OF_ASC_NODE": 57.5195, "ARG_OF_PERICENTER": 251.5378, "MEAN_ANOMALY": 108.5641, "EPHEMERIS_TYPE": 0, "CLASSIFICATION_TYPE": "U", "NORAD_CAT_ID": 43260, "ELEMENT_SET_NO": 999, "REV_AT_EPOCH": 41711, "BSTAR": 0.00014568, "MEAN_MOTION_DOT": 9.62e-06, "MEAN_MOTION_DDOT": 0}, "tle": {"line1": "1 43260U 18031B   25359.85068102  .00000962  00000+0  14568-3 0  9995", "line2": "2 43260  98.0780  57.5195 0001751 251.5378 108.5641 14.76462971417112"}}, "geometry": {"type": "Point", "coordinates": [-125.51611435775574, -22.33319528785766]}}, {"type": "Feature", "properties": {"norad_id": 43262, "name": "GAOFEN-1 04", "group": "resource", "lat": -28.454378682819428, "lon": 62.41352688849362, "alt_km": 646.4727574229682, "timestamp": "2025-12-26T03:50:11.745388+00:00", "meta": {"OBJECT_NAME": "GAOFEN-1 04", "OBJECT_ID": "2018-031D", "EPOCH": "2025-12-25T19:50:02.377824", "MEAN_MOTION": 14.7643226, "ECCENTRICITY": 5.21e-05, "INCLINATION": 98.0786, "RA_OF_ASC_NODE": 57.6655, "ARG_OF_PERICENTER": 62.5285, "MEAN_ANOMALY": 297.5977, "EPHEMERIS_TYPE": 0, "CLASSIFICATION_TYPE": "U", "NORAD_CAT_ID": 43262, "ELEMENT_SET_NO": 999, "REV_AT_EPOCH": 41710, "BSTAR": 0.00013837, "MEAN_MOTION_DOT": 9.1e-06, "MEAN_MOTION_DDOT": 0}, "tle": {"line1": "1 43262U 18031D   25359.82641641  .00000910  00000+0  13837-3 0  9990", "line2": "2 43262  98.0786  57.6655 0000521  62.5285 297.5977 14.76432260417101"}}, "geometry": {"type": "Point", "coordinates": [62.41352688849362, -28.454378682819428]}}]}